STARLINK-33982          
1 63707C 25087L   26083.96715278 -.00014891  00000+0 -50193-3 0   838
2 63707  53.1570 148.5026 0001144  85.3145 139.5589 15.30195070    10
STARLINK-33915          
1 63708C 25087M   26083.93312500 -.00063216  00000+0 -21305-2 0   834
2 63708  53.1569 148.7906 0001171  78.5405 254.7921 15.30224859    19
STARLINK-33862          
1 63709C 25087N   26083.89562500 -.00075810  00000+0 -25542-2 0   837
2 63709  53.1568 148.8958 0001237  86.8250  74.7008 15.30240424    12
STARLINK-33920          
1 63710C 25087P   26083.98104167 -.00018789  00000+0 -63314-3 0   832
2 63710  53.1580 148.7526 0001183 120.2986  24.0628 15.30206690    10
STARLINK-33580          
1 63711C 25087Q   26084.00256944 -.00041560  00000+0 -14012-2 0   842
2 63711  53.1590 148.7550 0001089  76.5451 134.1415 15.30202690    17
STARLINK-33783          
1 63712C 25087R   26083.94006944 -.00056334  00000+0 -19006-2 0   830
2 63712  53.1580 148.9178 0001421  90.3255 199.9848 15.30185809    12
STARLINK-33773          
1 63713C 25087S   26083.90951389 -.00061431  00000+0 -20702-2 0   838
2 63713  53.1578 148.6796 0001223 100.5378 213.1545 15.30226551    16
STARLINK-33745          
1 63714C 25087T   26083.96645833 -.00028464  00000+0 -95948-3 0   833
2 63714  53.1583 148.3802 0001157  93.1896 191.8417 15.30200984    18
STARLINK-33728          
1 63715C 25087U   26083.91993056 -.00068252  00000+0 -23003-2 0   833
2 63715  53.1572 148.6747 0000928  92.4323 255.4143 15.30227049    14
STARLINK-33749          
1 63716C 25087V   26083.92548611 -.00077363  00000+0 -26067-2 0   834
2 63716  53.1584 149.0407 0001122  95.1986  85.5013 15.30239416    17
STARLINK-33725          
1 63717C 25087W   26083.92479167 -.00084083  00000+0 -28339-2 0   835
2 63717  53.1571 148.6878 0001151  84.6867 272.5120 15.30233503    12
STARLINK-33641          
1 63718C 25087X   26083.90048611 -.00082946  00000+0 -27956-2 0   830
2 63718  53.1569 148.9726 0001275  84.6943  51.2872 15.30232952    10
STARLINK-33727          
1 63719C 25087Y   26083.99145833  .00049330  00000+0  16620-2 0   838
2 63719  53.1583 148.2434 0001170  94.9404 339.4446 15.30178405    16
STARLINK-33757          
1 63720C 25087Z   26083.99701389 -.00044405  00000+0 -14966-2 0   835
2 63720  53.1567 148.4649 0001179  82.8424 254.2697 15.30215151    19
STARLINK-33774          
1 63721C 25087AA  26083.98104167 -.00030634  00000+0 -10324-2 0   839
2 63721  53.1576 148.7044 0001156  95.4023  72.2400 15.30209597    19
STARLINK-33767          
1 63722C 25087AB  26083.95395833 -.00009437  00000+0 -31815-3 0   835
2 63722  53.1572 148.5277 0001076 101.6365  67.9732 15.30186287    11
STARLINK-33806          
1 63723C 25087AC  26083.93659722 -.00074611  00000+0 -25150-2 0   834
2 63723  53.1569 148.6776 0001150  80.2403 318.7667 15.30223855    18
STARLINK-11677 [DTC]    
1 63751C 25089A   26083.92409722  .00034368  00000+0  26692-3 0   835
2 63751  42.9998 200.7344 0001705 264.7135 250.2236 15.70822308    13
STARLINK-11702 [DTC]    
1 63752C 25089B   26083.99979167 -.00046474  00000+0 -36103-3 0   839
2 63752  43.0004 199.9031 0001870 266.8802 106.9142 15.70855908    18
STARLINK-11706 [DTC]    
1 63753C 25089C   26083.93520833  .00073052  00000+0  56907-3 0   830
2 63753  43.0003 200.0687 0001611 268.2975 189.9939 15.70732018    10
STARLINK-11662 [DTC]    
1 63754C 25089D   26083.96298611 -.00010972  00000+0 -85227-4 0   832
2 63754  43.0001 200.2741 0002316 262.1311 203.1567 15.70839159    12
STARLINK-11681 [DTC]    
1 63755C 25089E   26083.94770833 -.00066226  00000+0 -51398-3 0   836
2 63755  42.9999 200.5154 0001583 251.2821  67.3790 15.70889458    13
STARLINK-11688 [DTC]    
1 63756C 25089F   26083.98868056 -.00041609  00000+0 -32334-3 0   833
2 63756  43.0003 200.0433 0001882 274.5233   6.3060 15.70846468    11
STARLINK-11676 [DTC]    
1 63757C 25089G   26083.99493056 -.00045849  00000+0 -35632-3 0   833
2 63757  43.0002 199.5564 0001579 253.8209 242.7538 15.70846683    19
STARLINK-11705 [DTC]    
1 63758C 25089H   26083.90604167  .00064658  00000+0  50241-3 0   832
2 63758  42.9998 200.6910 0001767 250.3331 222.4911 15.70796054    14
STARLINK-11703 [DTC]    
1 63759C 25089J   26083.98034722 -.00026746  00000+0 -20789-3 0   837
2 63759  43.0006 199.9427 0001944 298.6110 355.1558 15.70833337    14
STARLINK-11701 [DTC]    
1 63760C 25089K   26083.90256944  .00063197  00000+0  49110-3 0   831
2 63760  43.0000 200.1878 0002295 262.4888  41.1173 15.70793366    18
STARLINK-11660 [DTC]    
1 63761C 25089L   26083.99979167 -.00061423  00000+0 -47717-3 0   833
2 63761  43.0004 199.7500 0001804 272.9924 160.9249 15.70863353    18
STARLINK-11699 [DTC]    
1 63762C 25089M   26083.96854167 -.00026554  00000+0 -20634-3 0   838
2 63762  42.9999 200.5361 0001564 256.4224 120.0701 15.70840540    12
STARLINK-11693 [DTC]    
1 63763C 25089N   26083.97756944 -.00027454  00000+0 -21326-3 0   833
2 63763  43.0004 199.9708 0001867 270.0820   2.8014 15.70848486    19
STARLINK-33760          
1 63764C 25089P   26083.95534722 -.00079135  00000+0 -28676-2 0   837
2 63764  43.0037 319.1460 0001369 267.9793 351.4651 15.27602519    15
STARLINK-33941          
1 63765C 25089Q   26083.96298611 -.00063007  00000+0 -22832-2 0   832
2 63765  43.0038 319.1361 0001290 274.4240  12.9137 15.27594141    19
STARLINK-33824          
1 63766C 25089R   26083.97340278 -.00059693  00000+0 -21624-2 0   835
2 63766  43.0014 319.3004 0001313 270.3806 342.3324 15.27602889    16
STARLINK-33808          
1 63767C 25089S   26083.96090278 -.00066895  00000+0 -24233-2 0   838
2 63767  43.0029 318.9934 0001290 273.5714  65.9611 15.27606865    12
STARLINK-33844          
1 63768C 25089T   26083.91993056 -.00082344  00000+0 -29829-2 0   833
2 63768  43.0014 318.9715 0001205 272.5962 307.4729 15.27615636    14
STARLINK-33907          
1 63769C 25089U   26083.99493056 -.00052516  00000+0 -19033-2 0   831
2 63769  43.0036 318.8692 0001533 280.8578 217.7502 15.27583771    17
STARLINK-33884          
1 63770C 25089V   26083.98381944 -.00054424  00000+0 -19719-2 0   835
2 63770  43.0016 318.6253 0001365 273.8619 290.9050 15.27593749    16
STARLINK-33841          
1 63771C 25089W   26083.89840278 -.00086059  00000+0 -31170-2 0   830
2 63771  43.0014 319.2097 0001282 269.8190 142.1958 15.27621883    11
STARLINK-33769          
1 63773C 25089X   26083.97826389 -.00041141  00000+0 -14907-2 0   830
2 63773  43.0015 318.6224 0001207 273.5690 274.7533 15.27587359    13
STARLINK-33914          
1 63774C 25089Y   26083.94076389 -.00059931  00000+0 -21725-2 0   837
2 63774  43.0014 315.1724 0001525 270.9932 138.9833 15.27581237    16
STARLINK-33932          
1 63775C 25091A   26084.00951389 -.00086613  00000+0 -31386-2 0   843
2 63775  43.0034 325.8601 0001660 272.5599 205.6230 15.27606040    11
STARLINK-33930          
1 63776C 25091B   26084.01506944 -.00060085  00000+0 -21772-2 0   841
2 63776  43.0014 326.2893 0001285 272.5886  45.1684 15.27594891    10
STARLINK-33911          
1 63777C 25091C   26083.96229167  .00017004  00000+0  61620-3 0   831
2 63777  43.0027 319.1285 0001733 273.1446 320.9405 15.27553055    10
STARLINK-33938          
1 63778C 25091D   26083.96784722 -.00204740  00000+0 -74171-2 0   836
2 63778  43.0028 326.3211 0001615 280.2461 236.5959 15.27673736    11
STARLINK-33881          
1 63779C 25091E   26083.92270833 -.00111430  00000+0 -40359-2 0   830
2 63779  43.0020 326.8971 0001531 274.3259 219.5251 15.27633830    15
STARLINK-33846          
1 63780C 25091F   26084.02479167 -.00090456  00000+0 -32768-2 0   845
2 63780  43.0016 326.1832 0001669 265.0264 127.4797 15.27617529    15
STARLINK-33883          
1 63781C 25091G   26083.92687500 -.00091851  00000+0 -33263-2 0   836
2 63781  43.0011 326.6835 0001083 274.9497 319.6556 15.27629818    18
STARLINK-33842          
1 63782C 25091H   26084.00395833 -.00099189  00000+0 -35925-2 0   842
2 63782  43.0030 326.0652 0001669 280.4996  96.3269 15.27627964    17
STARLINK-33892          
1 63783C 25091J   26083.91993056 -.00112440  00000+0 -40731-2 0   839
2 63783  43.0037 326.5190 0001487 270.9306  10.3524 15.27629118    17
STARLINK-33933          
1 63784C 25091K   26084.02131944  .00046052  00000+0  16680-2 0   843
2 63784  43.0016 319.0057 0001375 292.3736 181.7588 15.27555525    18
STARLINK-33906          
1 63785C 25091L   26084.01368056  .00014950  00000+0  54114-3 0   846
2 63785  43.0029 326.0935 0001345 277.0746 117.9648 15.27592490    14
STARLINK-33923          
1 63786C 25091M   26083.96923611 -.00012542  00000+0 -45434-3 0   835
2 63786  43.0023 326.3290 0001341 272.0809 245.2355 15.27580541    11
STARLINK-33947          
1 63787C 25091N   26084.01715278 -.00059479  00000+0 -21553-2 0   847
2 63787  43.0023 326.3455 0001181 273.2421  27.6857 15.27594092    15
STARLINK-33882          
1 63788C 25091P   26083.97687500 -.00102650  00000+0 -37195-2 0   836
2 63788  43.0037 326.1774 0001374 280.9700 320.9268 15.27616022    15
STARLINK-33875          
1 63789C 25091Q   26084.01993056 -.00032511  00000+0 -11782-2 0   842
2 63789  43.0033 325.7803 0001546 274.5009 268.1126 15.27576230    14
STARLINK-33869          
1 63790C 25091R   26083.99145833 -.00057851  00000+0 -20958-2 0   830
2 63790  43.0025 325.8553 0001185 271.3443 149.8650 15.27600752    10
STARLINK-33935          
1 63791C 25091S   26084.01437500 -.00055163  00000+0 -19987-2 0   845
2 63791  43.0018 326.3098 0001401 273.9359  32.9221 15.27594058    15
STARLINK-33916          
1 63792C 25091T   26083.89354167 -.00141830  00000+0 -51363-2 0   838
2 63792  43.0013 326.9385 0001258 267.7996 115.0011 15.27654053    16
STARLINK-33925          
1 63793C 25091U   26083.90951389 -.00087982  00000+0 -31861-2 0   838
2 63793  43.0028 326.3696 0001364 262.7070  46.1270 15.27628285    17
